NORAD_CAT_ID,OBJECT_NAME,OBJECT_TYPE,EPOCH,MEAN_MOTION,ECCENTRICITY,INCLINATION,RA_OF_ASC_NODE,ARG_OF_PERICENTER,MEAN_ANOMALY,BSTAR,MEAN_MOTION_DOT,MEAN_MOTION_DDOT,TLE_LINE0,TLE_LINE1,TLE_LINE2,SEMIMAJOR_AXIS,PERIOD,APOGEE,PERIGEE,DECAYED
52622.0,STARLINK-4008,PAYLOAD,2024-07-04 07:38:19,15.08845912,0.0001266,53.2168,157.6519,95.8637,264.25,9.71e-05,1.258e-05,0.0,0 STARLINK-4008,1 52622U 22052AA  24186.31827639  .00001258  00000-0  97100-4 0  9995,2 52622  53.2168 157.6519 0001266  95.8637 264.2500 15.08845912118182,6917.862,95.437,540.603,538.852,0.0
52622.0,STARLINK-4008,PAYLOAD,2024-07-04 15:35:15,15.08840554,0.0001145,53.2157,156.165,96.3042,263.808,4.266e-05,3.91e-06,0.0,0 STARLINK-4008,1 52622U 22052AA  24186.64948069  .00000391  00000-0  42660-4 0  9990,2 52622  53.2157 156.1650 0001145  96.3042 263.8080 15.08840554118615,6917.879,95.438,540.536,538.952,0.0
52622.0,STARLINK-4008,PAYLOAD,2024-07-05 07:29:06,15.08841442,0.0001337,53.2168,153.1899,99.3439,260.7704,1.3265e-05,-7.7e-07,0.0,0 STARLINK-4008,1 52622U 22052AA  24187.31188146 -.00000077  00000-0  13265-4 0  9998,2 52622  53.2168 153.1899 0001337  99.3439 260.7704 15.08841442118330,6917.876,95.437,540.666,538.816,0.0
52622.0,STARLINK-4008,PAYLOAD,2024-07-05 15:26:02,15.08841078,0.0001308,53.2168,151.7043,96.2476,263.8665,1.9301e-05,1.9e-07,0.0,0 STARLINK-4008,1 52622U 22052AA  24187.64308128  .00000019  00000-0  19301-4 0  9990,2 52622  53.2168 151.7043 0001308  96.2476 263.8665 15.08841078118380,6917.877,95.437,540.647,538.837,0.0
52622.0,STARLINK-4008,PAYLOAD,2024-07-06 04:09:07,15.08840982,0.000147,53.2177,149.3255,98.9021,261.2137,-1.1932e-05,-4.78e-06,0.0,0 STARLINK-4008,1 52622U 22052AA  24188.17300288 -.00000478  00000-0 -11932-4 0  9991,2 52622  53.2177 149.3255 0001470  98.9021 261.2137 15.08840982118843,6917.877,95.437,540.759,538.725,0.0
52622.0,STARLINK-4008,PAYLOAD,2024-07-06 07:19:53,15.08839567,0.0001453,53.2178,148.7306,100.4092,259.7064,1.7202e-05,-1.4e-07,0.0,0 STARLINK-4008,1 52622U 22052AA  24188.30548261 -.00000014  00000-0  17202-4 0  9992,2 52622  53.2178 148.7306 0001453 100.4092 259.7064 15.08839567118480,6917.882,95.438,540.752,538.742,0.0
52622.0,STARLINK-4008,PAYLOAD,2024-07-07 07:10:41,15.08836291,0.0001358,53.2175,144.2711,92.7099,267.4049,1.5642e-06,-2.63e-06,0.0,0 STARLINK-4008,1 52622U 22052AA  24189.29908767 -.00000263  00000-0  15642-5 0  9995,2 52622  53.2175 144.2711 0001358  92.7099 267.4049 15.08836291119012,6917.892,95.438,540.696,538.817,0.0
52622.0,STARLINK-4008,PAYLOAD,2024-07-08 13:23:00,15.08841657,0.0001154,53.2171,138.6234,94.8607,265.2517,1.5685e-05,-3.8e-07,0.0,0 STARLINK-4008,1 52622U 22052AA  24190.55764563 -.00000038  00000-0  15685-4 0  9996,2 52622  53.2171 138.6234 0001154  94.8607 265.2517 15.08841657118823,6917.875,95.437,540.539,538.942,0.0
52622.0,STARLINK-4008,PAYLOAD,2024-07-08 21:19:56,15.08836015,0.0001355,53.2186,137.1403,106.9323,253.1817,3.08e-05,2.02e-06,0.0,0 STARLINK-4008,1 52622U 22052AA  24190.88885079  .00000202  00000-0  30800-4 0  9996,2 52622  53.2186 137.1403 0001355 106.9323 253.1817 15.08836015119253,6917.893,95.438,540.695,538.82,0.0
52622.0,STARLINK-4008,PAYLOAD,2024-07-09 13:13:48,15.08835479,0.000129,53.2185,134.1665,102.3695,257.7441,1.5316e-05,-4.4e-07,0.0,0 STARLINK-4008,1 52622U 22052AA  24191.55125308 -.00000044  00000-0  15316-4 0  9993,2 52622  53.2185 134.1665 0001290 102.3695 257.7441 15.08835479118973,6917.894,95.438,540.652,538.867,0.0
52622.0,STARLINK-4008,PAYLOAD,2024-07-10 03:32:16,15.0883769,0.000141,53.2184,131.4897,94.9167,265.1987,1.26e-05,-8.7e-07,0.0,0 STARLINK-4008,1 52622U 22052AA  24192.14741463 -.00000087  00000-0  12600-4 0  9995,2 52622  53.2184 131.4897 0001410  94.9167 265.1987 15.08837690119441,6917.887,95.438,540.728,538.777,0.0
52622.0,STARLINK-4008,PAYLOAD,2024-07-10 13:04:35,15.08841583,0.0001435,53.2187,129.7036,85.3402,274.7754,3.7722e-05,3.12e-06,0.0,0 STARLINK-4008,1 52622U 22052AA  24192.54485172  .00000312  00000-0  37722-4 0  9993,2 52622  53.2187 129.7036 0001435  85.3402 274.7754 15.08841583119121,6917.876,95.437,540.733,538.748,0.0
52622.0,STARLINK-4008,PAYLOAD,2024-07-10 19:26:07,15.08837601,0.0001407,53.2182,128.5137,85.1317,274.9836,7.6434e-05,9.29e-06,0.0,0 STARLINK-4008,1 52622U 22052AA  24192.80981299  .00000929  00000-0  76434-4 0  9990,2 52622  53.2182 128.5137 0001407  85.1317 274.9836 15.08837601119160,6917.888,95.438,540.726,538.779,0.0
52622.0,STARLINK-4008,PAYLOAD,2024-07-11 01:47:40,15.08842643,0.0001401,53.2178,127.3241,84.9118,275.2034,6.4016e-05,7.31e-06,0.0,0 STARLINK-4008,1 52622U 22052AA  24193.07477039  .00000731  00000-0  64016-4 0  9996,2 52622  53.2178 127.3241 0001401  84.9118 275.2034 15.08842643119209,6917.872,95.437,540.707,538.768,0.0
52622.0,STARLINK-4008,PAYLOAD,2024-07-12 04:49:12,15.08849514,0.0001497,53.2181,122.2681,97.4167,262.6995,9.1792e-05,1.174e-05,0.0,0 STARLINK-4008,1 52622U 22052AA  24194.20084428  .00001174  00000-0  91792-4 0  9991,2 52622  53.2181 122.2681 0001497  97.4167 262.6995 15.08849514119753,6917.851,95.437,540.752,538.681,0.0
52622.0,STARLINK-4008,PAYLOAD,2024-07-12 12:46:09,15.08839721,0.0001665,53.2177,120.7834,78.9973,281.1206,4.5671e-06,-2.15e-06,0.0,0 STARLINK-4008,1 52622U 22052AA  24194.53205416 -.00000215  00000-0  45671-5 0  9991,2 52622  53.2177 120.7834 0001665  78.9973 281.1206 15.08839721119803,6917.881,95.438,540.898,538.594,0.0
52622.0,STARLINK-4008,PAYLOAD,2024-07-12 22:18:28,15.08838549,0.0001452,53.2172,118.9987,83.1264,276.9894,-4.623e-06,-3.62e-06,0.0,0 STARLINK-4008,1 52622U 22052AA  24194.92949419 -.00000362  00000-0 -46230-5 0  9998,2 52622  53.2172 118.9987 0001452  83.1264 276.9894 15.08838549119487,6917.885,95.438,540.754,538.745,0.0
52622.0,STARLINK-4008,PAYLOAD,2024-07-13 04:40:00,15.08846288,0.0001536,53.2176,117.8069,102.9438,257.1726,5.4947e-05,5.87e-06,0.0,0 STARLINK-4008,1 52622U 22052AA  24195.19444620  .00000587  00000-0  54947-4 0  9992,2 52622  53.2176 117.8069 0001536 102.9438 257.1726 15.08846288119907,6917.861,95.437,540.789,538.664,0.0
52622.0,STARLINK-4008,PAYLOAD,2024-07-13 18:58:29,15.08842518,0.0001747,53.2181,115.1272,116.8418,243.2753,-9.219e-05,-1.755e-05,0.0,0 STARLINK-4008,1 52622U 22052AA  24195.79061377 -.00001755  00000-0 -92190-4 0  9994,2 52622  53.2181 115.1272 0001747 116.8418 243.2753 15.08842518119993,6917.873,95.437,540.946,538.529,0.0
52622.0,STARLINK-4008,PAYLOAD,2024-07-13 22:09:15,15.08843007,0.0001539,53.2175,114.5358,115.5934,244.5217,-1.538e-05,-5.33e-06,0.0,0 STARLINK-4008,1 52622U 22052AA  24195.92309065 -.00000533  00000-0 -15380-4 0  9997,2 52622  53.2175 114.5358 0001539 115.5934 244.5217 15.08843007119636,6917.871,95.437,540.801,538.672,0.0
52622.0,STARLINK-4008,PAYLOAD,2024-07-14 04:30:47,15.08846981,0.000134,53.2173,113.3458,104.3059,255.8082,2.24e-05,6.9e-07,0.0,0 STARLINK-4008,1 52622U 22052AA  24196.18804729  .00000069  00000-0  22400-4 0  9996,2 52622  53.2173 113.3458 0001340 104.3059 255.8082 15.08846981120053,6917.859,95.437,540.651,538.797,0.0
52622.0,STARLINK-4008,PAYLOAD,2024-07-14 18:49:16,15.08833671,0.0001509,53.217,110.669,103.5546,256.5614,1.2651e-05,-8.7e-07,0.0,0 STARLINK-4008,1 52622U 22052AA  24196.78421767 -.00000087  00000-0  12651-4 0  9997,2 52622  53.2170 110.6690 0001509 103.5546 256.5614 15.08833671120148,6917.9,95.438,540.809,538.721,0.0
52622.0,STARLINK-4008,PAYLOAD,2024-07-14 22:00:02,15.08835795,0.0001389,53.2163,110.0744,104.0798,256.0349,5.5115e-05,5.89e-06,0.0,0 STARLINK-4008,1 52622U 22052AA  24196.91669528  .00000589  00000-0  55115-4 0  9999,2 52622  53.2163 110.0744 0001389 104.0798 256.0349 15.08835795119782,6917.893,95.438,540.719,538.797,0.0
52622.0,STARLINK-4008,PAYLOAD,2024-07-15 01:10:48,15.08841577,0.0001296,53.2172,109.4812,92.5076,267.6065,9.5352e-05,1.23e-05,0.0,0 STARLINK-4008,1 52622U 22052AA  24197.04917142  .00001230  00000-0  95352-4 0  9993,2 52622  53.2172 109.4812 0001296  92.5076 267.6065 15.08841577120181,6917.876,95.437,540.637,538.844,0.0
52622.0,STARLINK-4008,PAYLOAD,2024-07-15 10:43:07,15.08845825,0.0001275,53.2177,107.699,90.6663,269.4475,1.7265e-05,-1.3e-07,0.0,0 STARLINK-4008,1 52622U 22052AA  24197.44661039 -.00000013  00000-0  17265-4 0  9994,2 52622  53.2177 107.6990 0001275  90.6663 269.4475 15.08845825119869,6917.863,95.437,540.61,538.846,0.0
52622.0,STARLINK-4008,PAYLOAD,2024-07-15 21:50:50,15.08830903,0.0001536,53.2195,105.6225,108.8781,251.2378,2.3911e-05,9.3e-07,0.0,0 STARLINK-4008,1 52622U 22052AA  24197.91030313  .00000093  00000-0  23911-4 0  9993,2 52622  53.2195 105.6225 0001536 108.8781 251.2378 15.08830903119931,6917.908,95.438,540.836,538.711,0.0
52622.0,STARLINK-4008,PAYLOAD,2024-07-16 04:12:21,15.08846,0.0001326,53.2175,104.4266,91.2568,268.8576,0.00010557,1.393e-05,0.0,0 STARLINK-4008,1 52622U 22052AA  24198.17525120  .00001393  00000-0  10557-3 0  9992,2 52622  53.2175 104.4266 0001326  91.2568 268.8576 15.08846000120353,6917.862,95.437,540.644,538.81,0.0
52622.0,STARLINK-4008,PAYLOAD,2024-07-16 21:41:36,15.08840442,0.0001388,53.2178,101.1563,93.7953,266.3198,6.6879e-05,7.77e-06,0.0,0 STARLINK-4008,1 52622U 22052AA  24198.90389684  .00000777  00000-0  66879-4 0  9990,2 52622  53.2178 101.1563 0001388  93.7953 266.3198 15.08840442120080,6917.879,95.438,540.704,538.784,0.0
52622.0,STARLINK-4008,PAYLOAD,2024-07-17 10:24:41,15.08849105,0.0001472,53.2182,98.7776,78.9108,281.2049,0.00010079,1.317e-05,0.0,0 STARLINK-4008,1 52622U 22052AA  24199.43380856  .00001317  00000-0  10079-3 0  9992,2 52622  53.2182  98.7776 0001472  78.9108 281.2049 15.08849105120540,6917.853,95.437,540.736,538.699,0.0
52622.0,STARLINK-4008,PAYLOAD,2024-07-17 21:32:25,15.08820854,0.0001303,53.2177,96.7007,96.4637,263.6504,-3.499e-05,-8.44e-06,0.0,0 STARLINK-4008,1 52622U 22052AA  24199.89751404 -.00000844  00000-0 -34990-4 0  9998,2 52622  53.2177  96.7007 0001303  96.4637 263.6504 15.08820854120230,6917.939,95.439,540.705,538.903,0.0
